EUTELSAT 8 WEST B       
1 40875U 15039B   26016.22721754 -.00000047  00000+0  00000+0 0  9997
2 40875   0.0641 356.6425 0004229 296.9181 255.9277  1.00272631 38135
EUTELSAT 9B             
1 41310U 16005A   26016.23051089  .00000079  00000+0  00000+0 0  9998
2 41310   0.0340  60.4955 0004320 231.6370 275.4910  1.00271775 36599
EUTELSAT 65 WEST A      
1 41382U 16014A   26016.21586412 -.00000258  00000+0  00000+0 0  9998
2 41382   0.0915 298.6976 0002100   5.9069 183.5233  1.00268917 36013
EUTELSAT 117 WEST B     
1 41589U 16038B   26016.27687784  .00000007  00000+0  00000+0 0  9994
2 41589   0.0063 123.6159 0000262 228.4835 106.2749  1.00268820 35146
EUTELSAT 172B           
1 42741U 17029B   26016.26283775  .00000012  00000+0  00000+0 0  9993
2 42741   0.0315 120.4361 0000263 304.7965 317.0702  1.00271586 32208
EUTELSAT 7C             
1 44334U 19034B   26016.08747440  .00000067  00000+0  00000+0 0  9995
2 44334   0.0781 185.4241 0003255  98.9206 229.6648  1.00275395  5318
EUTELSAT 5 WEST B       
1 44624U 19067A   26016.22773753 -.00000024  00000+0  00000+0 0  9999
2 44624   0.0874 313.9368 0002919 347.2352 251.4706  1.00271555 22916
EUTELSAT KONNECT        
1 45027U 20005B   26015.58829461  .00000068  00000+0  00000+0 0  9994
2 45027   0.0690  93.9540 0001095 189.7521  50.3054  1.00272189 22802
